start=new Date('2022-06-20T00:00:00.000Z').valueOf();
sats=[{"REV_AT_EPOCH":"9211","OBJECT_TYPE":"PAYLOAD","EPOCH":"2022-06-19T21:02:50.801568","PERIAPSIS":"546.076","APOAPSIS":"548.389","NORAD_CAT_ID":"46700","MEAN_MOTION":"15.06393957","OBJECT_ID":"2020-073AG","SEMIMAJOR_AXIS":"6925.367","SITE":"AFETR","TLE_LINE2":"2 46700  53.0538 236.5681 0001670  56.9041 303.2108 15.06393957 92111","CENTER_NAME":"EARTH","EPHEMERIS_TYPE":"0","RCS_SIZE":"LARGE","MEAN_ANOMALY":"303.2108","MEAN_MOTION_DOT":"-0.00001283","BSTAR":"-0.00006722500000","GP_ID":"206446554","REF_FRAME":"TEME","INCLINATION":"53.0538","DECAY_DATE":null,"PERIOD":"95.593","MEAN_ELEMENT_THEORY":"SGP4","FILE":"3497669","ARG_OF_PERICENTER":"56.9041","TLE_LINE1":"1 46700U 20073AG  22170.87697687 -.00001283  00000-0 -67225-4 0  9991","ELEMENT_SET_NO":"999","RA_OF_ASC_NODE":"236.5681","COUNTRY_CODE":"US","TIME_SYSTEM":"UTC","OBJECT_NAME":"STARLINK-1800","LAUNCH_DATE":"2020-10-18","ECCENTRICITY":"0.00016700","MEAN_MOTION_DDOT":"0.0000000000000","CLASSIFICATION_TYPE":"U"},{"BSTAR":"0.00009943200000","GP_ID":"206415997","REF_FRAME":"TEME","MEAN_ANOMALY":"298.3383","MEAN_MOTION_DOT":"0.00001200","TLE_LINE2":"2 46701  53.0552 224.1132 0001464  61.7754 298.3383 15.06398042 92241","CENTER_NAME":"EARTH","EPHEMERIS_TYPE":"0","RCS_SIZE":"LARGE","PERIOD":"95.592","DECAY_DATE":null,"INCLINATION":"53.0552","OBJECT_TYPE":"PAYLOAD","EPOCH":"2022-06-19T07:30:05.857920","REV_AT_EPOCH":"9224","SITE":"AFETR","MEAN_MOTION":"15.06398042","OBJECT_ID":"2020-073AH","SEMIMAJOR_AXIS":"6925.355","APOAPSIS":"548.233","NORAD_CAT_ID":"46701","PERIAPSIS":"546.206","OBJECT_NAME":"STARLINK-1801","TIME_SYSTEM":"UTC","COUNTRY_CODE":"US","CLASSIFICATION_TYPE":"U","MEAN_MOTION_DDOT":"0.0000000000000","LAUNCH_DATE":"2020-10-18","ECCENTRICITY":"0.00014640","FILE":"3497010","ARG_OF_PERICENTER":"61.7754","TLE_LINE1":"1 46701U 20073AH  22170.31256780  .00001200  00000-0  99432-4 0  9998","MEAN_ELEMENT_THEORY":"SGP4","RA_OF_ASC_NODE":"224.1132","ELEMENT_SET_NO":"999"},{"REV_AT_EPOCH":"9259","OBJECT_TYPE":"PAYLOAD","EPOCH":"2022-06-19T18:57:27.908640","APOAPSIS":"548.411","NORAD_CAT_ID":"46702","PERIAPSIS":"546.063","SITE":"AFETR","OBJECT_ID":"2020-073AJ","SEMIMAJOR_AXIS":"6925.372","MEAN_MOTION":"15.06392316","MEAN_ANOMALY":"303.1497","MEAN_MOTION_DOT":"-0.00000004","RCS_SIZE":"LARGE","EPHEMERIS_TYPE":"0","CENTER_NAME":"EARTH","TLE_LINE2":"2 46702  53.0535 201.9696 0001695  56.9655 303.1497 15.06392316 92590","GP_ID":"206447054","REF_FRAME":"TEME","BSTAR":"0.00001861200000","INCLINATION":"53.0535","PERIOD":"95.593","DECAY_DATE":null,"MEAN_ELEMENT_THEORY":"SGP4","TLE_LINE1":"1 46702U 20073AJ  22170.78990635 -.00000004  00000-0  18612-4 0  9997","ARG_OF_PERICENTER":"56.9655","FILE":"3497669","ELEMENT_SET_NO":"999","RA_OF_ASC_NODE":"201.9696","COUNTRY_CODE":"US","OBJECT_NAME":"STARLINK-1802","TIME_SYSTEM":"UTC","ECCENTRICITY":"0.00016950","LAUNCH_DATE":"2020-10-18","CLASSIFICATION_TYPE":"U","MEAN_MOTION_DDOT":"0.0000000000000"},{"COUNTRY_CODE":"US","TIME_SYSTEM":"UTC","OBJECT_NAME":"STARLINK-1803","LAUNCH_DATE":"2020-10-18","ECCENTRICITY":"0.00017190","MEAN_MOTION_DDOT":"0.0000000000000","CLASSIFICATION_TYPE":"U","MEAN_ELEMENT_THEORY":"SGP4","TLE_LINE1":"1 46703U 20073AK  22170.55584617  .00001411  00000-0  11366-3 0  9992","ARG_OF_PERICENTER":"61.5005","FILE":"3497010","ELEMENT_SET_NO":"999","RA_OF_ASC_NODE":"222.9997","RCS_SIZE":"LARGE","EPHEMERIS_TYPE":"0","TLE_LINE2":"2 46703  53.0544 222.9997 0001719  61.5005 298.6156 15.06386109 92274","CENTER_NAME":"EARTH","MEAN_ANOMALY":"298.6156","MEAN_MOTION_DOT":"0.00001411","GP_ID":"206415496","REF_FRAME":"TEME","BSTAR":"0.00011366000000","INCLINATION":"53.0544","DECAY_DATE":null,"PERIOD":"95.593","REV_AT_EPOCH":"9227","OBJECT_TYPE":"PAYLOAD","EPOCH":"2022-06-19T13:20:25.109088","PERIAPSIS":"546.066","APOAPSIS":"548.447","NORAD_CAT_ID":"46703","OBJECT_ID":"2020-073AK","SEMIMAJOR_AXIS":"6925.391","MEAN_MOTION":"15.06386109","SITE":"AFETR"},{"COUNTRY_CODE":"US","TIME_SYSTEM":"UTC","OBJECT_NAME":"STARLINK-1804","LAUNCH_DATE":"2020-10-18","ECCENTRICITY":"0.00015380","MEAN_MOTION_DDOT":"0.0000000000000","CLASSIFICATION_TYPE":"U","MEAN_ELEMENT_THEORY":"SGP4","FILE":"3497669","ARG_OF_PERICENTER":"64.8134","TLE_LINE1":"1 46704U 20073AL  22170.80096227  .00000447  00000-0  48908-4 0  9997","ELEMENT_SET_NO":"999","RA_OF_ASC_NODE":"201.9118","TLE_LINE2":"2 46704  53.0540 201.9118 0001538  64.8134 295.3014 15.06391646 92595","CENTER_NAME":"EARTH","RCS_SIZE":"LARGE","EPHEMERIS_TYPE":"0","MEAN_MOTION_DOT":"0.00000447","MEAN_ANOMALY":"295.3014","BSTAR":"0.00004890800000","GP_ID":"206446055","REF_FRAME":"TEME","INCLINATION":"53.0540","DECAY_DATE":null,"PERIOD":"95.593","REV_AT_EPOCH":"9259","OBJECT_TYPE":"PAYLOAD","EPOCH":"2022-06-19T19:13:23.140128","PERIAPSIS":"546.174","APOAPSIS":"548.304","NORAD_CAT_ID":"46704","MEAN_MOTION":"15.06391646","SEMIMAJOR_AXIS":"6925.374","OBJECT_ID":"2020-073AL","SITE":"AFETR"},{"DECAY_DATE":null,"PERIOD":"95.593","INCLINATION":"53.0549","BSTAR":"-0.00000084043000","REF_FRAME":"TEME","GP_ID":"206446303","CENTER_NAME":"EARTH","TLE_LINE2":"2 46705  53.0549 236.5400 0001451  58.7984 301.3147 15.06390371 92119","RCS_SIZE":"LARGE","EPHEMERIS_TYPE":"0","MEAN_MOTION_DOT":"-0.00000294","MEAN_ANOMALY":"301.3147","MEAN_MOTION":"15.06390371","OBJECT_ID":"2020-073AM","SEMIMAJOR_AXIS":"6925.378","SITE":"AFETR","PERIAPSIS":"546.238","NORAD_CAT_ID":"46705","APOAPSIS":"548.248","EPOCH":"2022-06-19T21:08:09.644352","OBJECT_TYPE":"PAYLOAD","REV_AT_EPOCH":"9211","MEAN_MOTION_DDOT":"0.0000000000000","CLASSIFICATION_TYPE":"U","LAUNCH_DATE":"2020-10-18","ECCENTRICITY":"0.00014510","TIME_SYSTEM":"UTC","OBJECT_NAME":"STARLINK-1805","COUNTRY_CODE":"US","RA_OF_ASC_NODE":"236.5400","ELEMENT_SET_NO":"999","FILE":"3497669","TLE_LINE1":"1 46705U 20073AM  22170.88066718 -.00000294  00000-0 -84043-6 0  9992","ARG_OF_PERICENTER":"58.7984","MEAN_ELEMENT_THEORY":"SGP4"},{"CLASSIFICATION_TYPE":"U","MEAN_MOTION_DDOT":"0.0000000000000","LAUNCH_DATE":"2020-10-18","ECCENTRICITY":"0.00017400","OBJECT_NAME":"STARLINK-1807","TIME_SYSTEM":"UTC","COUNTRY_CODE":"US","RA_OF_ASC_NODE":"221.6761","ELEMENT_SET_NO":"999","ARG_OF_PERICENTER":"49.4569","TLE_LINE1":"1 46706U 20073AN  22170.85440454 -.00000101  00000-0  12123-4 0  9997","FILE":"3497669","MEAN_ELEMENT_THEORY":"SGP4","PERIOD":"95.592","DECAY_DATE":null,"INCLINATION":"53.0534","GP_ID":"206447555","REF_FRAME":"TEME","BSTAR":"0.00001212300000","MEAN_MOTION_DOT":"-0.00000101","MEAN_ANOMALY":"310.6571","EPHEMERIS_TYPE":"0","RCS_SIZE":"LARGE","CENTER_NAME":"EARTH","TLE_LINE2":"2 46706  53.0534 221.6761 0001740  49.4569 310.6571 15.06396166 92321","SITE":"AFETR","OBJECT_ID":"2020-073AN","SEMIMAJOR_AXIS":"6925.360","MEAN_MOTION":"15.06396166","NORAD_CAT_ID":"46706","APOAPSIS":"548.430","PERIAPSIS":"546.020","EPOCH":"2022-06-19T20:30:20.552256","OBJECT_TYPE":"PAYLOAD","REV_AT_EPOCH":"9232"},{"PERIOD":"95.593","DECAY_DATE":null,"INCLINATION":"53.0556","BSTAR":"0.00030118000000","REF_FRAME":"TEME","GP_ID":"206447802","MEAN_MOTION_DOT":"0.00004206","MEAN_ANOMALY":"318.3007","TLE_LINE2":"2 46707  53.0556 202.0064 0002179  41.8148 318.3007 15.06391702 92590","CENTER_NAME":"EARTH","EPHEMERIS_TYPE":"0","RCS_SIZE":"LARGE","SITE":"AFETR","MEAN_MOTION":"15.06391702","OBJECT_ID":"2020-073AP","SEMIMAJOR_AXIS":"6925.374","NORAD_CAT_ID":"46707","APOAPSIS":"548.748","PERIAPSIS":"545.730","OBJECT_TYPE":"PAYLOAD","EPOCH":"2022-06-19T18:41:32.139744","REV_AT_EPOCH":"9259","CLASSIFICATION_TYPE":"U","MEAN_MOTION_DDOT":"0.0000000000000","ECCENTRICITY":"0.00021790","LAUNCH_DATE":"2020-10-18","OBJECT_NAME":"STARLINK-1808","TIME_SYSTEM":"UTC","COUNTRY_CODE":"US","RA_OF_ASC_NODE":"202.0064","ELEMENT_SET_NO":"999","FILE":"3497669","TLE_LINE1":"1 46707U 20073AP  22170.77884421  .00004206  00000-0  30118-3 0  9997","ARG_OF_PERICENTER":"41.8148","MEAN_ELEMENT_THEORY":"SGP4"},{"PERIOD":"95.595","DECAY_DATE":null,"INCLINATION":"53.0530","GP_ID":"206446555","REF_FRAME":"TEME","BSTAR":"0.00116770000000","MEAN_ANOMALY":"305.2356","MEAN_MOTION_DOT":"0.00017134","RCS_SIZE":"LARGE","EPHEMERIS_TYPE":"0","TLE_LINE2":"2 46709  53.0530 237.6857 0002336  54.8852 305.2356 15.06357618 92072","CENTER_NAME":"EARTH","SITE":"AFETR","OBJECT_ID":"2020-073AR","SEMIMAJOR_AXIS":"6925.478","MEAN_MOTION":"15.06357618","NORAD_CAT_ID":"46709","APOAPSIS":"548.961","PERIAPSIS":"545.726","EPOCH":"2022-06-19T15:44:26.318688","OBJECT_TYPE":"PAYLOAD","REV_AT_EPOCH":"9207","CLASSIFICATION_TYPE":"U","MEAN_MOTION_DDOT":"0.0000000000000","LAUNCH_DATE":"2020-10-18","ECCENTRICITY":"0.00023360","OBJECT_NAME":"STARLINK-1810","TIME_SYSTEM":"UTC","COUNTRY_CODE":"US","RA_OF_ASC_NODE":"237.6857","ELEMENT_SET_NO":"999","ARG_OF_PERICENTER":"54.8852","TLE_LINE1":"1 46709U 20073AR  22170.65586017  .00017134  00000-0  11677-2 0  9998","FILE":"3497669","MEAN_ELEMENT_THEORY":"SGP4"},{"PERIOD":"95.592","DECAY_DATE":null,"INCLINATION":"53.0557","GP_ID":"206446804","REF_FRAME":"TEME","BSTAR":"0.00005802000000","MEAN_MOTION_DOT":"0.00000583","MEAN_ANOMALY":"302.9634","RCS_SIZE":"LARGE","EPHEMERIS_TYPE":"0","CENTER_NAME":"EARTH","TLE_LINE2":"2 46710  53.0557 236.5815 0001545  57.1503 302.9634 15.06396219 92113","SITE":"AFETR","OBJECT_ID":"2020-073AS","SEMIMAJOR_AXIS":"6925.360","MEAN_MOTION":"15.06396219","NORAD_CAT_ID":"46710","APOAPSIS":"548.295","PERIAPSIS":"546.155","EPOCH":"2022-06-19T20:57:32.103072","OBJECT_TYPE":"PAYLOAD","REV_AT_EPOCH":"9211","CLASSIFICATION_TYPE":"U","MEAN_MOTION_DDOT":"0.0000000000000","ECCENTRICITY":"0.00015450","LAUNCH_DATE":"2020-10-18","OBJECT_NAME":"STARLINK-1811","TIME_SYSTEM":"UTC","COUNTRY_CODE":"US","RA_OF_ASC_NODE":"236.5815","ELEMENT_SET_NO":"999","TLE_LINE1":"1 46710U 20073AS  22170.87328823  .00000583  00000-0  58020-4 0  9998","ARG_OF_PERICENTER":"57.1503","FILE":"3497669","MEAN_ELEMENT_THEORY":"SGP4"}];
